ordinal{string},comment{string},originator{string},norad_cat_id{string},object_name{string},object_type{string},classification_type{string},intldes{string},epoch{timestamp},epoch_microseconds{integer},mean_motion{decimal},eccentricity{decimal},inclination{decimal},ra_of_asc_node{decimal},arg_of_pericenter{decimal},mean_anomaly{decimal},ephemeris_type{string},element_set_no{string},rev_at_epoch{integer},bstar{decimal},mean_motion_dot{decimal},mean_motion_ddot{string},file{string},tle_line0{string},tle_line1{string},tle_line2{string},object_id{string},object_number{string},semimajor_axis{decimal},period{decimal},apogee{decimal},perigee{decimal}
1,GENERATED VIA SPACETRACK.ORG API,JSPOC,11698,COSMOS 1163,PAYLOAD,U,80012H,2019-02-22T01:52:38Z,572608,12.3991112099999992,0.00451939999999999981,74.0186000000000064,266.610000000000014,121.513800000000003,354.976299999999981,0,999,76644,1.04310000000000006e-05,-1.4000000000000001e-07,0,2414334,0 COSMOS 1163,1 11698U 80012H   19053.07822422 -.00000014  00000-0  10431-4 0  9990,2 11698  74.0186 266.6100 0045194 121.5138 354.9763 12.39911121766442,1980-012H,11698,7885.11599999999999,116.137,1542.61699999999996,1471.34500000000003
1,GENERATED VIA SPACETRACK.ORG API,JSPOC,25477,ORBCOMM FM 23,PAYLOAD,U,98053C,2019-02-22T01:53:28Z,24512,14.3266859499999999,0.000247399999999999996,45.011099999999999,335.833799999999997,298.296199999999999,61.7633999999999972,0,999,6657,4.61069999999999975e-05,-1.4000000000000001e-07,0,2414230,0 ORBCOMM FM 23,1 25477U 98053C   19053.07879658 -.00000014  00000-0  46107-4 0  9996,2 25477  45.0111 335.8338 0002474 298.2962  61.7634 14.32668595 66577,1998-053C,25477,7160.96100000000024,100.510999999999996,784.597999999999956,781.05499999999995
1,GENERATED VIA SPACETRACK.ORG API,JSPOC,43556,AEROCUBE 12A,PAYLOAD,U,18046C,2019-02-22T01:53:30Z,360768,15.2832380699999995,0.000864500000000000034,51.642000000000003,255.870000000000005,17.736699999999999,342.391300000000001,0,999,3372,4.4895000000000003e-05,9.00000000000000023e-06,0,2414381,0 AEROCUBE 12A,1 43556U 18046C   19053.07882362  .00000900  00000-0  44895-4 0  9999,2 43556  51.6420 255.8700 0008645  17.7367 342.3913 15.28323807 33723,2018-046C,43556,6858.95899999999983,94.2199999999999989,486.754000000000019,474.894999999999982
1,GENERATED VIA SPACETRACK.ORG API,JSPOC,11296,COSMOS 1081,PAYLOAD,U,79024A,2019-02-22T01:56:27Z,632832,12.5724470000000004,0.00394640000000000008,74.0349999999999966,23.2216999999999985,181.058699999999988,249.2834,0,999,83337,-8.98080000000000048e-05,-3.09999999999999997e-07,0,2414230,0 COSMOS 1081,1 11296U 79024A   19053.08087538 -.00000031  00000-0 -89808-4 0  9991,2 11296  74.0350  23.2217 0039464 181.0587 249.2834 12.57244700833371,1979-024A,11296,7812.47400000000016,114.536000000000001,1465.17100000000005,1403.50800000000004
1,GENERATED VIA SPACETRACK.ORG API,JSPOC,33153,INTELSAT 25(PROTOSTAR 1),PAYLOAD,U,08034A,2019-02-22T01:57:12Z,403584,1.00271934000000007,0.000278099999999999983,0.0195,205.032299999999992,104.678399999999996,199.752700000000004,0,999,3884,0,-2.47000000000000007e-06,0,2414351,0 INTELSAT 25(PROTOSTAR 1),1 33153U 08034A   19053.08139356 -.00000247  00000-0  00000+0 0  9996,2 33153   0.0195 205.0323 0002781 104.6784 199.7527  1.00271934 38845,2008-034A,33153,42164.6900000000023,1436.09400000000005,35798.2810000000027,35774.8289999999979
1,GENERATED VIA SPACETRACK.ORG API,JSPOC,28892,UWE-1,PAYLOAD,U,05043C,2019-02-22T01:57:14Z,830560,14.6357365000000001,0.00162089999999999999,97.9458999999999946,198.889199999999988,5.04309999999999992,355.093200000000024,0,999,71052,2.92510000000000017e-05,1.06000000000000002e-06,0,2414224,0 UWE-1,1 28892U 05043C   19053.08142165  .00000106  00000-0  29251-4 0  9996,2 28892  97.9459 198.8892 0016209   5.0431 355.0932 14.63573650710522,2005-043C,28892,7059.79500000000007,98.3889999999999958,693.102999999999952,670.216999999999985
1,GENERATED VIA SPACETRACK.ORG API,JSPOC,15592,COSMOS 1633,PAYLOAD,U,85020A,2019-02-22T01:57:36Z,37440,15.3008955800000006,0.00138809999999999997,82.5356000000000023,62.3973999999999975,152.969600000000014,207.227100000000007,0,999,85827,3.52879999999999982e-05,1.06699999999999995e-05,0,2414233,0 COSMOS 1633,1 15592U 85020A   19053.08166710  .00001067  00000-0  35288-4 0  9998,2 15592  82.5356  62.3974 0013881 152.9696 207.2271 15.30089558858278,1985-020A,15592,6853.68099999999959,94.1119999999999948,485.060000000000002,466.033000000000015
1,GENERATED VIA SPACETRACK.ORG API,JSPOC,20149,COSMOS 2034,PAYLOAD,U,89059A,2019-02-22T01:57:44Z,892576,13.7344680500000003,0.00325790000000000021,82.9412999999999982,29.7811999999999983,118.851500000000001,311.900399999999991,0,999,48258,2.57100000000000003e-06,1.79999999999999997e-07,0,2414278,0 COSMOS 2034,1 20149U 89059A   19053.08176959  .00000018  00000-0  25710-5 0  9999,2 20149  82.9413  29.7812 0032579 118.8515 311.9004 13.73446805482585,1989-059A,20149,7365.35900000000038,104.844999999999999,1011.22000000000003,963.227999999999952
1,GENERATED VIA SPACETRACK.ORG API,JSPOC,41179,ORBCOMM FM 114,PAYLOAD,U,15081A,2019-02-22T02:00:03Z,365856,14.5476351000000008,0.000297300000000000017,47.0043999999999969,337.610299999999995,258.982399999999984,101.072500000000005,0,999,16842,2.8008999999999999e-05,-4.4999999999999998e-07,0,2414244,0 ORBCOMM FM 114,1 41179U 15081A   19053.08337229 -.00000045  00000-0  28009-4 0  9992,2 41179  47.0044 337.6103 0002973 258.9824 101.0725 14.54763510168428,2015-081A,41179,7088.26900000000023,98.9849999999999994,712.241999999999962,708.027000000000044
1,GENERATED VIA SPACETRACK.ORG API,JSPOC,22971,TUBSAT B,PAYLOAD,U,94003C,2019-02-22T02:01:22Z,397664,13.1707300899999993,0.00168979999999999998,82.5649999999999977,172.422699999999992,46.2972999999999999,13.8515999999999995,0,999,20558,0.00015705999999999999,7.29999999999999999e-07,0,2414283,0 TUBSAT B,1 22971U 94003C   19053.08428701  .00000073  00000-0  15706-3 0  9997,2 22971  82.5650 172.4227 0016898  46.2973  13.8516 13.17073009205582,1994-003C,22971,7574.05699999999979,109.332999999999998,1208.721,1183.12400000000002
1,GENERATED VIA SPACETRACK.ORG API,JSPOC,33495,KAGAYAKI,PAYLOAD,U,09002D,2019-02-22T02:03:58Z,777344,14.7211629199999994,0.000708599999999999985,98.3813999999999993,235.052099999999996,235.698499999999996,124.355099999999993,0,999,54130,5.85170000000000023e-06,-1.69999999999999987e-07,0,2414312,0 KAGAYAKI,1 33495U 09002D   19053.08609696 -.00000017  00000-0  58517-5 0  9997,2 33495  98.3814 235.0521 0007086 235.6985 124.3551 14.72116292541305,2009-002D,33495,7032.45700000000033,97.8179999999999978,659.30499999999995,649.337999999999965
1,GENERATED VIA SPACETRACK.ORG API,JSPOC,14670,STTW-T1,PAYLOAD,U,84008A,2019-02-22T02:05:45Z,261024,8.98594813999999964,0.298282700000000012,36.1103000000000023,92.5302999999999969,124.4709,267.462899999999991,0,999,14309,2.69640000000000014e-05,1.90000000000000007e-07,0,2414258,0 STTW-T1,1 14670U 84008A   19053.08732941  .00000019  00000-0  26964-4 0  9991,2 14670  36.1103  92.5303 2982827 124.4709 267.4629  8.98594814143090,1984-008A,14670,9772.95499999999993,160.25,6309.92299999999977,479.716000000000008
1,GENERATED VIA SPACETRACK.ORG API,JSPOC,24278,JAS 2,PAYLOAD,U,96046B,2019-02-22T02:06:41Z,803776,13.53089327,0.0350398999999999988,98.5190999999999946,222.417399999999986,182.311299999999989,177.642300000000006,0,999,11203,2.07329999999999995e-05,-1.4000000000000001e-07,0,2414374,0 JAS 2,1 24278U 96046B   19053.08798384 -.00000014  00000-0  20733-4 0  9998,2 24278  98.5191 222.4174 0350399 182.3113 177.6423 13.53089327112036,1996-046B,24278,7439.05000000000018,106.423000000000002,1321.57899999999995,800.251999999999953
1,GENERATED VIA SPACETRACK.ORG API,JSPOC,26932,SAPPHIRE,PAYLOAD,U,01043D,2019-02-22T02:07:20Z,996544,14.30299224,0.000543999999999999996,67.0567000000000064,307.804399999999987,249.992799999999988,110.058800000000005,0,999,90830,1.70889999999999985e-05,-3.80000000000000015e-07,0,2414297,0 SAPPHIRE,1 26932U 01043D   19053.08843746 -.00000038  00000-0  17089-4 0  9999,2 26932  67.0567 307.8044 0005440 249.9928 110.0588 14.30299224908306,2001-043D,26932,7168.86700000000019,100.677999999999997,794.631999999999948,786.831999999999994
1,GENERATED VIA SPACETRACK.ORG API,JSPOC,15935,OSCAR 30,PAYLOAD,U,85066A,2019-02-22T02:08:25Z,571904,13.3566279899999998,0.0167547000000000008,90.142399999999995,58.6317000000000021,254.777199999999993,171.159500000000008,0,999,63276,9.88870000000000071e-06,1.29999999999999999e-07,0,2414342,0 OSCAR 30,1 15935U 85066A   19053.08918486  .00000013  00000-0  98887-5 0  9999,2 15935  90.1424  58.6317 0167547 254.7772 171.1595 13.35662799632763,1985-066A,15935,7503.61599999999999,107.811000000000007,1251.202,999.759999999999991
1,GENERATED VIA SPACETRACK.ORG API,JSPOC,37851,DICE 1,PAYLOAD,U,11061B,2019-02-22T02:09:09Z,601344,15.0310072800000007,0.0183086000000000013,101.747100000000003,243.041599999999988,83.3096000000000032,278.891399999999976,0,999,39886,4.7045000000000001e-05,7.5299999999999999e-06,0,2414294,0 DICE 1,1 37851U 11061B   19053.08969446  .00000753  00000-0  47045-4 0  9996,2 37851 101.7471 243.0416 0183086  83.3096 278.8914 15.03100728398862,2011-061B,37851,6935.47800000000007,95.8010000000000019,684.322000000000003,430.363999999999976
1,GENERATED VIA SPACETRACK.ORG API,JSPOC,812,OPS 4467 A,PAYLOAD,U,64031A,2019-02-22T02:10:03Z,415584,14.2383165900000002,0.000574399999999999976,99.8322000000000003,225.699999999999989,20.5406000000000013,339.599899999999991,0,999,83643,7.43550000000000021e-06,-3.70000000000000004e-07,0,2414223,0 OPS 4467 A,1   812U 64031A   19053.09031731 -.00000037  00000-0  74355-5 0  9997,2   812  99.8322 225.7000 0005744  20.5406 339.5999 14.23831659836432,1964-031A,812,7190.5600000000004,101.135000000000005,816.55499999999995,808.294999999999959
